#aV2008  5 13  0  0   .00000000      96 DD+AD WGS84 FIT  NGA
## 1479 172800.00000000   900.00000000 54599  .0000000000000
+   31     2  3  4  5  6  7  8  9 10 11 12 13 14 15 16 17 18
+         19 20 21 22 23 24 25 26 27 28 29 30 31 32  0  0  0
+          0  0  0  0  0  0  0  0  0  0  0  0  0  0  0  0  0
+          0  0  0  0  0  0  0  0  0  0  0  0  0  0  0  0  0
+          0  0  0  0  0  0  0  0  0  0  0  0  0  0  0  0  0
++         0  0  0  0  0  0  0  0  0  0  0  0  0  0  0  0  0
++         0  0  0  0  0  0  0  0  0  0  0  0  0  0  0  0  0
++         0  0  0  0  0  0  0  0  0  0  0  0  0  0  0  0  0
++         0  0  0  0  0  0  0  0  0  0  0  0  0  0  0  0  0
++         0  0  0  0  0  0  0  0  0  0  0  0  0  0  0  0  0
%c cc cc ccc ccc cccc cccc cccc cccc ccccc ccccc ccccc ccccc
%c cc cc ccc ccc cccc cccc cccc cccc ccccc ccccc ccccc ccccc
%f  0.0000000  0.000000000  0.00000000000  0.000000000000000
%f  0.0000000  0.000000000  0.00000000000  0.000000000000000
%i    0    0    0    0      0      0      0      0         0
%i    0    0    0    0      0      0      0      0         0
/*      NGA, ST. LOUIS,MO.                                  
/*   EPHEMERIS COMPUTED FROM  3 DAYS OF DATA                
/* CCCCCCCCCCCCCCCCCCCCCCCCCCCCCCCCCCCCCCCCCCCCCCCCCCCCCCCCC
/* CCCCCCCCCCCCCCCCCCCCCCCCCCCCCCCCCCCCCCCCCCCCCCCCCCCCCCCCC
*  2008  5 13  7 45   .00000000                                                 
P  2 -13187.835779 -23001.311038  -3727.385665    202.399845                    
V  2    900.079216  -5325.758114  30679.707541       .034438                    
P  3  18658.696172  11706.806196 -15337.969975    227.424160                    
V  3 -19013.541357   2262.298101 -21413.053663       .052354                    
P  4  -5041.355671 -24906.504541   6959.728082    -66.264208                    
V  4   6765.928385   6993.994372  29878.263103      -.084423                    
P  5 -19042.838657  10852.150913  14629.256338    771.318852                    
V  5   7679.436485 -17745.730517  22887.346417       .092229                    
P  6   7858.657071  15416.810675 -19982.352429    125.892535                    
V  6 -25875.832075   -605.601275 -10575.021782       .092958                    
P  7  11731.594366 -10460.942018 -21427.820228    -44.496015                    
V  7  11303.453276  24692.402124  -5938.339573       .094406                    
P  8   3288.302465 -21025.700990 -15665.181891   -152.770259                    
V  8   8585.642111  18019.859121 -22958.585292      -.015545                    
P  9 -17166.609147  -6281.350863  18701.246216    124.232207                    
V  9  -9594.805403 -23121.044056 -15885.443825       .016862                    
P 10  -9095.276601 -12702.111904 -21577.910613     -1.491828                    
V 10  17150.605646 -21005.886241   5490.630189      -.003567                    
P 11  18912.602040   1105.152323  18570.420732     25.656836                    
V 11  11929.363248  21030.512430 -12960.445954      -.003324                    
P 12 -19160.274520   5154.221678  17702.090562   -359.161405                    
V 12  12011.813776 -18889.311725  18689.977889       .000576                    
P 13  19923.736737  -7325.023417 -16065.857534    255.067794                    
V 13  19676.387832   4374.042166  22595.608229       .017965                    
P 14  -3352.032818  14286.182185  22233.569207   -267.319533                    
V 14 -27608.289811  -4123.717590  -1612.915747       .041658                    
P 15 -24731.533342  -7164.424667  -6515.457916   -110.344554                    
V 15   8544.456389  -1920.196560 -30217.202475      -.055514                    
P 16   4576.698991  16734.309246 -19977.550659    125.329750                    
V 16 -16533.606861  19553.752623  12740.082054      -.013772                    
P 17   3158.509983 -14965.366490  21749.317363     39.138700                    
V 17  27286.953293   3669.456049  -1597.518775      -.002787                    
P 18 -17895.996312  19121.136458  -2852.725554   -178.478492                    
V 18   -335.343361  -5234.875741 -31420.264942       .037443                    
P 19  24698.170468   8421.430580  -5366.352264     29.685844                    
V 19  -7270.128674   1400.836539 -30580.265285       .009373                    
P 20  19590.311823  -7379.560233  16201.404193    114.473595                    
V 20 -10334.692881  18241.009055  20694.595666      -.008295                    
P 21  -9052.007974  15416.343896 -19269.072367     64.450248                    
V 21 -11142.931955 -22606.871710 -13341.050332      -.010790                    
P 22  -9194.783881  22852.404803  10017.446967    211.110317                    
V 22 -10173.105142   7907.406767 -27848.516275       .002839                    
P 23  26285.329781   -133.215209  -4708.222551    353.371843                    
V 23   5542.077500   2889.918821  31086.607002       .022282                    
P 24 -15518.253547   1670.701781 -21293.984842     93.501409                    
V 24  -9085.924766 -25956.693657   4823.220056       .029165                    
P 25  14859.400134  -3661.135787 -21328.379263   -147.663108                    
V 25  13051.530154  24723.216827   4945.295547      -.266680                    
P 26 -22642.632727 -10478.709337 -10360.026966    252.168948                    
V 26  12230.581045    907.834682 -28492.920962       .081025                    
P 27   9283.193108 -12906.713146 -20581.118150    188.062757                    
V 27  13337.649388  24290.270683  -9068.960944       .027316                    
P 28  10354.159326 -22858.440906   8549.518978    -18.962452                    
V 28   8559.316999  -6535.215069 -29478.413035      -.005315                    
P 29 -22416.659219   6002.717821 -12773.230348    -43.214798                    
V 29 -15962.460136  -4546.252505  25662.927373       .002476                    
P 30 -18712.827594  16511.157660   8605.244943     76.202849                    
V 30   3875.262169 -11204.507136  28898.940772       .017144                    
P 31   6533.157484  25041.496554   5917.153334    -19.718957                    
V 31  -5262.566621  -5627.117588  30793.097043      -.012011                    
P 32  10967.219248  10594.284609  22190.429113    284.109821                    
V 32 -17894.722443  20351.999687   -720.668218       .054778                    
EOF
